[{"OBJECT_NAME":"JILIN-1 GAOFEN 03D50","OBJECT_ID":"2022-167J","EPOCH":"2026-03-09T22:35:59.947584","MEAN_MOTION":15.32279726,"ECCENTRICITY":0.00065764,"INCLINATION":97.6731,"RA_OF_ASC_NODE":232.9458,"ARG_OF_PERICENTER":101.1473,"MEAN_ANOMALY":259.0507,"EPHEMERIS_TYPE":0,"CLASSIFICATION_TYPE":"U","NORAD_CAT_ID":54690,"ELEMENT_SET_NO":999,"REV_AT_EPOCH":18014,"BSTAR":0.00049467973,"MEAN_MOTION_DOT":0.00015359,"MEAN_MOTION_DDOT":0},{"OBJECT_NAME":"STARLINK-33747","OBJECT_ID":"2025-069M","EPOCH":"2026-03-09T11:25:30.878112","MEAN_MOTION":15.30202464,"ECCENTRICITY":0.00013025,"INCLINATION":53.1586,"RA_OF_ASC_NODE":143.3523,"ARG_OF_PERICENTER":87.4041,"MEAN_ANOMALY":272.7109,"EPHEMERIS_TYPE":0,"CLASSIFICATION_TYPE":"U","NORAD_CAT_ID":63444,"ELEMENT_SET_NO":999,"REV_AT_EPOCH":5332,"BSTAR":0.00089821112,"MEAN_MOTION_DOT":0.0002634,"MEAN_MOTION_DDOT":0}]
